{
    "links": {
        "self": "http://www.neowsapp.com/rest/v1/neo/3577068?api_key=iIulBulltgU6a56xZRHN4H3l9WmuAYTsLGpBGhQ2"
    },
    "id": "3577068",
    "neo_reference_id": "3577068",
    "name": "(2011 QF48)",
    "designation": "2011 QF48",
    "nasa_jpl_url": "http://ssd.jpl.nasa.gov/sbdb.cgi?sstr=3577068",
    "absolute_magnitude_h": 25.4,
    "estimated_diameter": {
        "kilometers": {
            "estimated_diameter_min": 0.022108281,
            "estimated_diameter_max": 0.0494356193
        },
        "meters": {
            "estimated_diameter_min": 22.1082810359,
            "estimated_diameter_max": 49.435619262
        },
        "miles": {
            "estimated_diameter_min": 0.0137374447,
            "estimated_diameter_max": 0.0307178602
        },
        "feet": {
            "estimated_diameter_min": 72.5337327539,
            "estimated_diameter_max": 162.1903570994
        }
    },
    "is_potentially_hazardous_asteroid": false,
    "close_approach_data": [
        {
            "close_approach_date": "2005-03-19",
            "close_approach_date_full": "2005-Mar-19 16:47",
            "epoch_date_close_approach": 1111250820000,
            "relative_velocity": {
                "kilometers_per_second": "25.7830599721",
                "kilometers_per_hour": "92819.0158995589",
                "miles_per_hour": "57674.1268515898"
            },
            "miss_distance": {
                "astronomical": "0.3497014845",
                "lunar": "136.0338774705",
                "kilometers": "52314597.217038015",
                "miles": "32506783.351094007"
            },
            "orbiting_body": "Earth"
        },
        {
            "close_approach_date": "2011-08-27",
            "close_approach_date_full": "2011-Aug-27 23:15",
            "epoch_date_close_approach": 1314486900000,
            "relative_velocity": {
                "kilometers_per_second": "20.0807855471",
                "kilometers_per_hour": "72290.8279695391",
                "miles_per_hour": "44918.709190295"
            },
            "miss_distance": {
                "astronomical": "0.0086692718",
                "lunar": "3.3723467302",
                "kilometers": "1296904.595731066",
                "miles": "805859.1476020708"
            },
            "orbiting_body": "Earth"
        }
    ],
    "orbital_data": {
        "orbit_id": "10",
        "orbit_determination_date": "2017-04-06 08:52:55",
        "first_observation_date": "2011-08-30",
        "last_observation_date": "2011-09-21",
        "data_arc_in_days": 22,
        "observations_used": 47,
        "orbit_uncertainty": "7",
        "minimum_orbit_intersection": ".00109084",
        "jupiter_tisserand_invariant": "3.363",
        "epoch_osculation": "2459000.5",
        "eccentricity": ".6369047925823638",
        "semi_major_axis": "2.127519767671769",
        "inclination": "21.50536092774094",
        "ascending_node_longitude": "154.07510102105",
        "orbital_period": "1133.466875624398",
        "perihelion_distance": ".7724922313279023",
        "perihelion_argument": "113.1165456982112",
        "aphelion_distance": "3.482547304015636",
        "perihelion_time": "2459160.495569756991",
        "mean_anomaly": "309.18386557985",
        "mean_motion": ".3176096344250775",
        "equinox": "J2000",
        "orbit_class": {
            "orbit_class_type": "APO",
            "orbit_class_description": "Near-Earth asteroid orbits which cross the Earth’s orbit similar to that of 1862 Apollo",
            "orbit_class_range": "a (semi-major axis) > 1.0 AU; q (perihelion) < 1.017 AU"
        }
    },
    "is_sentry_object": false
}